ORBCOMM FM115           
1 41186U 15081H   25152.61047577  .00001642  00000+0  35522-3 0  9999
2 41186  46.9977 113.6372 0001455 315.5844  44.4926 14.62481934505496
ORBCOMM FM108           
1 41187U 15081J   25152.75334558  .00001127  00000+0  27875-3 0  9993
2 41187  47.0033 179.8582 0003668 253.7419 106.3063 14.58135068504542
ORBCOMM FM117           
1 41188U 15081K   25152.78804050  .00000484  00000+0  14077-3 0  9991
2 41188  46.9995 178.4609 0004170 258.6099 101.4318 14.58133791504595
ORBCOMM FM116           
1 41189U 15081L   25152.70838308  .00001899  00000+0  44429-3 0  9992
2 41189  47.0023 268.6849 0001371  93.6074 266.4968 14.58158477503396
